IRIDIUM 171             
1 43929U 19002H   24235.59294794 -.00000031  00000+0 -18133-4 0  9999
2 43929  86.3932 271.1080 0001967  99.0391 261.1027 14.34214290293848
IRIDIUM 170             
1 43930U 19002J   24235.39245034  .00001210  00000+0  18803-3 0  9993
2 43930  86.6050 271.0004 0002492  92.1764 267.9738 14.72250072301596
IRIDIUM 167             
1 43931U 19002K   24235.58660805  .00000687  00000+0  23827-3 0  9991
2 43931  86.3922 270.8944 0002114  93.1986 266.9451 14.34216718293846
IRIDIUM 181             
1 56726U 23068S   24235.51236762  .00001207  00000+0  35092-3 0  9994
2 56726  86.8673 327.8976 0001870  89.9764 270.1652 14.43575080 66706
IRIDIUM 177             
1 56727U 23068T   24235.20433939  .00003374  00000+0  44076-3 0  9995
2 56727  86.1938 284.0167 0002082  89.2313 270.9147 14.80211202 68140
IRIDIUM 174             
1 56728U 23068U   24235.40172610  .00002968  00000+0  38722-3 0  9993
2 56728  86.1950 284.0310 0001864  83.3868 276.7565 14.80212827 68177
IRIDIUM 178             
1 56729U 23068V   24235.59911919  .00001308  00000+0  16884-3 0  9999
2 56729  86.5779 304.5569 0001888  96.0540 264.0897 14.80207203 68203
IRIDIUM 179             
1 56730U 23068W   24235.59344139  .00002757  00000+0  35966-3 0  9996
2 56730  86.6802 309.5327 0002200  89.2021 270.9452 14.80194986 68203
